{
    "22220": {
        "gp_hist": [
            {
                "CCSDS_OMM_VERS": "2.0",
                "COMMENT": "GENERATED VIA SPACE-TRACK.ORG API",
                "CREATION_DATE": "2023-03-06T08:26:12",
                "ORIGINATOR": "18 SPCS",
                "OBJECT_NAME": "SL-16 R/B",
                "OBJECT_ID": "1992-076B",
                "CENTER_NAME": "EARTH",
                "REF_FRAME": "TEME",
                "TIME_SYSTEM": "UTC",
                "MEAN_ELEMENT_THEORY": "SGP4",
                "EPOCH": "2023-03-06T05:07:20.026272",
                "MEAN_MOTION": "14.16539181",
                "ECCENTRICITY": "0.00141280",
                "INCLINATION": "71.0030",
                "RA_OF_ASC_NODE": "343.7932",
                "ARG_OF_PERICENTER": "322.5464",
                "MEAN_ANOMALY": "188.2730",
                "EPHEMERIS_TYPE": "0",
                "CLASSIFICATION_TYPE": "U",
                "NORAD_CAT_ID": "22220",
                "ELEMENT_SET_NO": "999",
                "REV_AT_EPOCH": "56644",
                "BSTAR": "0.00006292400000",
                "MEAN_MOTION_DOT": "0.00000078",
                "MEAN_MOTION_DDOT": "0.0000000000000",
                "SEMIMAJOR_AXIS": "7215.218",
                "PERIOD": "101.656",
                "APOAPSIS": "847.276",
                "PERIAPSIS": "826.889",
                "OBJECT_TYPE": "ROCKET BODY",
                "RCS_SIZE": "LARGE",
                "COUNTRY_CODE": "CIS",
                "LAUNCH_DATE": "1992-11-17",
                "SITE": "TTMTR",
                "DECAY_DATE": null,
                "FILE": "3852396",
                "GP_ID": "227588744",
                "TLE_LINE0": "0 SL-16 R/B",
                "TLE_LINE1": "1 22220U 92076B   23065.21342623  .00000078  00000-0  62924-4 0  9993",
                "TLE_LINE2": "2 22220  71.0030 343.7932 0014128 322.5464 188.2730 14.16539181566447"
            },
            {
                "CCSDS_OMM_VERS": "2.0",
                "COMMENT": "GENERATED VIA SPACE-TRACK.ORG API",
                "CREATION_DATE": "2023-03-06T02:27:07",
                "ORIGINATOR": "18 SPCS",
                "OBJECT_NAME": "SL-16 R/B",
                "OBJECT_ID": "1992-076B",
                "CENTER_NAME": "EARTH",
                "REF_FRAME": "TEME",
                "TIME_SYSTEM": "UTC",
                "MEAN_ELEMENT_THEORY": "SGP4",
                "EPOCH": "2023-03-05T21:57:19.950336",
                "MEAN_MOTION": "14.16539174",
                "ECCENTRICITY": "0.00141140",
                "INCLINATION": "71.0030",
                "RA_OF_ASC_NODE": "344.4217",
                "ARG_OF_PERICENTER": "322.9456",
                "MEAN_ANOMALY": "105.5460",
                "EPHEMERIS_TYPE": "0",
                "CLASSIFICATION_TYPE": "U",
                "NORAD_CAT_ID": "22220",
                "ELEMENT_SET_NO": "999",
                "REV_AT_EPOCH": "56607",
                "BSTAR": "0.00005507500000",
                "MEAN_MOTION_DOT": "0.00000062",
                "MEAN_MOTION_DDOT": "0.0000000000000",
                "SEMIMAJOR_AXIS": "7215.218",
                "PERIOD": "101.656",
                "APOAPSIS": "847.266",
                "PERIAPSIS": "826.899",
                "OBJECT_TYPE": "ROCKET BODY",
                "RCS_SIZE": "LARGE",
                "COUNTRY_CODE": "CIS",
                "LAUNCH_DATE": "1992-11-17",
                "SITE": "TTMTR",
                "DECAY_DATE": null,
                "FILE": "3852256",
                "GP_ID": "227565310",
                "TLE_LINE0": "0 SL-16 R/B",
                "TLE_LINE1": "1 22220U 92076B   23064.91481424  .00000062  00000-0  55075-4 0  9994",
                "TLE_LINE2": "2 22220  71.0030 344.4217 0014114 322.9456 105.5460 14.16539174566074"
            },
            {
                "CCSDS_OMM_VERS": "2.0",
                "COMMENT": "GENERATED VIA SPACE-TRACK.ORG API",
                "CREATION_DATE": "2023-03-05T20:32:20",
                "ORIGINATOR": "18 SPCS",
                "OBJECT_NAME": "SL-16 R/B",
                "OBJECT_ID": "1992-076B",
                "CENTER_NAME": "EARTH",
                "REF_FRAME": "TEME",
                "TIME_SYSTEM": "UTC",
                "MEAN_ELEMENT_THEORY": "SGP4",
                "EPOCH": "2023-03-05T05:11:30.431616",
                "MEAN_MOTION": "14.16538936",
                "ECCENTRICITY": "0.00140920",
                "INCLINATION": "71.0029",
                "RA_OF_ASC_NODE": "345.8921",
                "ARG_OF_PERICENTER": "323.8722",
                "MEAN_ANOMALY": "143.7081",
                "EPHEMERIS_TYPE": "0",
                "CLASSIFICATION_TYPE": "U",
                "NORAD_CAT_ID": "22220",
                "ELEMENT_SET_NO": "999",
                "REV_AT_EPOCH": "56597",
                "BSTAR": "0.00002825600000",
                "MEAN_MOTION_DOT": "0.00000008",
                "MEAN_MOTION_DDOT": "0.0000000000000",
                "SEMIMAJOR_AXIS": "7215.219",
                "PERIOD": "101.656",
                "APOAPSIS": "847.251",
                "PERIAPSIS": "826.916",
                "OBJECT_TYPE": "ROCKET BODY",
                "RCS_SIZE": "LARGE",
                "COUNTRY_CODE": "CIS",
                "LAUNCH_DATE": "1992-11-17",
                "SITE": "TTMTR",
                "DECAY_DATE": null,
                "FILE": "3851939",
                "GP_ID": "227529906",
                "TLE_LINE0": "0 SL-16 R/B",
                "TLE_LINE1": "1 22220U 92076B   23064.21632444  .00000008  00000-0  28256-4 0  9998",
                "TLE_LINE2": "2 22220  71.0029 345.8921 0014092 323.8722 143.7081 14.16538936565976"
            },
            {
                "CCSDS_OMM_VERS": "2.0",
                "COMMENT": "GENERATED VIA SPACE-TRACK.ORG API",
                "CREATION_DATE": "2023-03-05T08:26:12",
                "ORIGINATOR": "18 SPCS",
                "OBJECT_NAME": "SL-16 R/B",
                "OBJECT_ID": "1992-076B",
                "CENTER_NAME": "EARTH",
                "REF_FRAME": "TEME",
                "TIME_SYSTEM": "UTC",
                "MEAN_ELEMENT_THEORY": "SGP4",
                "EPOCH": "2023-03-05T03:27:54.324000",
                "MEAN_MOTION": "14.16538960",
                "ECCENTRICITY": "0.00140840",
                "INCLINATION": "71.0030",
                "RA_OF_ASC_NODE": "346.0436",
                "ARG_OF_PERICENTER": "323.9885",
                "MEAN_ANOMALY": "136.8119",
                "EPHEMERIS_TYPE": "0",
                "CLASSIFICATION_TYPE": "U",
                "NORAD_CAT_ID": "22220",
                "ELEMENT_SET_NO": "999",
                "REV_AT_EPOCH": "56629",
                "BSTAR": "0.00002810600000",
                "MEAN_MOTION_DOT": "0.00000008",
                "MEAN_MOTION_DDOT": "0.0000000000000",
                "SEMIMAJOR_AXIS": "7215.219",
                "PERIOD": "101.656",
                "APOAPSIS": "847.245",
                "PERIAPSIS": "826.922",
                "OBJECT_TYPE": "ROCKET BODY",
                "RCS_SIZE": "LARGE",
                "COUNTRY_CODE": "CIS",
                "LAUNCH_DATE": "1992-11-17",
                "SITE": "TTMTR",
                "DECAY_DATE": null,
                "FILE": "3851485",
                "GP_ID": "227515639",
                "TLE_LINE0": "0 SL-16 R/B",
                "TLE_LINE1": "1 22220U 92076B   23064.14437875  .00000008  00000-0  28106-4 0  9995",
                "TLE_LINE2": "2 22220  71.0030 346.0436 0014084 323.9885 136.8119 14.16538960566292"
            },
            {
                "CCSDS_OMM_VERS": "2.0",
                "COMMENT": "GENERATED VIA SPACE-TRACK.ORG API",
                "CREATION_DATE": "2023-03-04T18:23:08",
                "ORIGINATOR": "18 SPCS",
                "OBJECT_NAME": "SL-16 R/B",
                "OBJECT_ID": "1992-076B",
                "CENTER_NAME": "EARTH",
                "REF_FRAME": "TEME",
                "TIME_SYSTEM": "UTC",
                "MEAN_ELEMENT_THEORY": "SGP4",
                "EPOCH": "2023-03-04T05:40:18.391008",
                "MEAN_MOTION": "14.16538882",
                "ECCENTRICITY": "0.00140650",
                "INCLINATION": "71.0030",
                "RA_OF_ASC_NODE": "347.9551",
                "ARG_OF_PERICENTER": "325.1895",
                "MEAN_ANOMALY": "186.3353",
                "EPHEMERIS_TYPE": "0",
                "CLASSIFICATION_TYPE": "U",
                "NORAD_CAT_ID": "22220",
                "ELEMENT_SET_NO": "999",
                "REV_AT_EPOCH": "56583",
                "BSTAR": "0.00000364100000",
                "MEAN_MOTION_DOT": "-0.00000041",
                "MEAN_MOTION_DDOT": "0.0000000000000",
                "SEMIMAJOR_AXIS": "7215.219",
                "PERIOD": "101.656",
                "APOAPSIS": "847.232",
                "PERIAPSIS": "826.936",
                "OBJECT_TYPE": "ROCKET BODY",
                "RCS_SIZE": "LARGE",
                "COUNTRY_CODE": "CIS",
                "LAUNCH_DATE": "1992-11-17",
                "SITE": "TTMTR",
                "DECAY_DATE": null,
                "FILE": "3851072",
                "GP_ID": "227457735",
                "TLE_LINE0": "0 SL-16 R/B",
                "TLE_LINE1": "1 22220U 92076B   23063.23632397 -.00000041  00000-0  36410-5 0  9996",
                "TLE_LINE2": "2 22220  71.0030 347.9551 0014065 325.1895 186.3353 14.16538882565836"
            }
        ],
        "vimpelId": null,
        "depth": null,
        "name": "Zenit-2 second stage",
        "cosparId": "1992-076B",
        "xSectAvg": 37.8287025400381,
        "shape": "Cyl",
        "width": null,
        "xSectMax": 42.2826001059582,
        "height": 10.4,
        "diameter": 3.9,
        "xSectMin": 11.9459060652752,
        "mass": 8225.97,
        "span": 10.4,
        "satno": 22220,
        "objectClass": "Rocket Body"
    }
}
